{
  "type": "FeatureCollection",
  "features": [
    {
      "type": "Feature",
      "properties": {
        "norad_id": 27954,
        "name": "GALAXY 13 (HORIZONS-1)",
        "group": "intelsat",
        "lat": 0.2311595429888844,
        "lon": -109.07964216630631,
        "alt_km": 35776.73029294638,
        "timestamp": "2025-12-21T20:41:07.652762+00:00",
        "meta_object_name": "GALAXY 13 (HORIZONS-1)",
        "meta_object_id": "2003-044A",
        "meta_epoch": "2025-12-21T12:24:14.906880",
        "meta_mean_motion": 1.00270258,
        "meta_eccentricity": 0.00023713,
        "meta_inclination": 0.9592,
        "meta_ra_of_asc_node": 86.3582,
        "meta_arg_of_pericenter": 179.4188,
        "meta_mean_anomaly": 220.5966,
        "meta_ephemeris_type": 0,
        "meta_classification_type": "U",
        "meta_norad_cat_id": 27954,
        "meta_element_set_no": 999,
        "meta_rev_at_epoch": 4479,
        "meta_bstar": 0,
        "meta_mean_motion_dot": 1.55e-06,
        "meta_mean_motion_ddot": 0,
        "tle_line1": "1 27954U 03044A   25355.51683920  .00000155  00000+0  00000+0 0  9991",
        "tle_line2": "2 27954   0.9592  86.3582 0002371 179.4188 220.5966  1.00270258 44796"
      },
      "geometry": {
        "type": "Point",
        "coordinates": [
          -109.07964216630631,
          0.2311595429888844
        ]
      }
    },
    {
      "type": "Feature",
      "properties": {
        "norad_id": 28358,
        "name": "INTELSAT 10-02",
        "group": "intelsat",
        "lat": -0.0008116497086630127,
        "lon": 40.001954756529166,
        "alt_km": 35785.917374045894,
        "timestamp": "2025-12-21T20:41:07.652773+00:00",
        "meta_object_name": "INTELSAT 10-02",
        "meta_object_id": "2004-022A",
        "meta_epoch": "2025-12-21T06:51:38.552832",
        "meta_mean_motion": 1.00272906,
        "meta_eccentricity": 9.847e-05,
        "meta_inclination": 0.0216,
        "meta_ra_of_asc_node": 73.3158,
        "meta_arg_of_pericenter": 234.5861,
        "meta_mean_anomaly": 244.1552,
        "meta_ephemeris_type": 0,
        "meta_classification_type": "U",
        "meta_norad_cat_id": 28358,
        "meta_element_set_no": 999,
        "meta_rev_at_epoch": 7877,
        "meta_bstar": 0,
        "meta_mean_motion_dot": 1.2e-07,
        "meta_mean_motion_ddot": 0,
        "tle_line1": "1 28358U 04022A   25355.28586288  .00000012  00000+0  00000+0 0  9992",
        "tle_line2": "2 28358   0.0216  73.3158 0000984 234.5861 244.1552  1.00272906 78773"
      },
      "geometry": {
        "type": "Point",
        "coordinates": [
          40.001954756529166,
          -0.0008116497086630127
        ]
      }
    },
    {
      "type": "Feature",
      "properties": {
        "norad_id": 28626,
        "name": "XM-3 (RHYTHM)",
        "group": "intelsat",
        "lat": 0.12215918124810485,
        "lon": 111.9098225051481,
        "alt_km": 36163.979952151814,
        "timestamp": "2025-12-21T20:41:07.652785+00:00",
        "meta_object_name": "XM-3 (RHYTHM)",
        "meta_object_id": "2005-008A",
        "meta_epoch": "2025-12-21T13:32:30.775776",
        "meta_mean_motion": 0.98949862,
        "meta_eccentricity": 0.00019955,
        "meta_inclination": 0.1963,
        "meta_ra_of_asc_node": 82.0268,
        "meta_arg_of_pericenter": 277.5305,
        "meta_mean_anomaly": 6.3091,
        "meta_ephemeris_type": 0,
        "meta_classification_type": "U",
        "meta_norad_cat_id": 28626,
        "meta_element_set_no": 999,
        "meta_rev_at_epoch": 4083,
        "meta_bstar": 0,
        "meta_mean_motion_dot": 8.7e-07,
        "meta_mean_motion_ddot": 0,
        "tle_line1": "1 28626U 05008A   25355.56424509  .00000087  00000+0  00000+0 0  9995",
        "tle_line2": "2 28626   0.1963  82.0268 0001995 277.5305   6.3091  0.98949862 40833"
      },
      "geometry": {
        "type": "Point",
        "coordinates": [
          111.9098225051481,
          0.12215918124810485
        ]
      }
    },
    {
      "type": "Feature",
      "properties": {
        "norad_id": 28659,
        "name": "DIRECTV 8",
        "group": "intelsat",
        "lat": -0.05087974328507625,
        "lon": -78.101502093672,
        "alt_km": 35774.11351473258,
        "timestamp": "2025-12-21T20:41:07.652802+00:00",
        "meta_object_name": "DIRECTV 8",
        "meta_object_id": "2005-019A",
        "meta_epoch": "2025-12-21T12:39:28.378656",
        "meta_mean_motion": 1.00270142,
        "meta_eccentricity": 0.00029327,
        "meta_inclination": 0.0251,
        "meta_ra_of_asc_node": 19.451,
        "meta_arg_of_pericenter": 262.9428,
        "meta_mean_anomaly": 238.7715,
        "meta_ephemeris_type": 0,
        "meta_classification_type": "U",
        "meta_norad_cat_id": 28659,
        "meta_element_set_no": 999,
        "meta_rev_at_epoch": 7529,
        "meta_bstar": 0,
        "meta_mean_motion_dot": 0,
        "meta_mean_motion_ddot": 0,
        "tle_line1": "1 28659U 05019A   25355.52741179  .00000000  00000+0  00000+0 0  9999",
        "tle_line2": "2 28659   0.0251  19.4510 0002932 262.9428 238.7715  1.00270142 75292"
      },
      "geometry": {
        "type": "Point",
        "coordinates": [
          -78.101502093672,
          -0.05087974328507625
        ]
      }
    },
    {
      "type": "Feature",
      "properties": {
        "norad_id": 28702,
        "name": "GALAXY 28 (G-28)",
        "group": "intelsat",
        "lat": -2.234201494751016,
        "lon": -47.7485315827027,
        "alt_km": 35776.742779067594,
        "timestamp": "2025-12-21T20:41:07.652817+00:00",
        "meta_object_name": "GALAXY 28 (G-28)",
        "meta_object_id": "2005-022A",
        "meta_epoch": "2025-12-20T00:49:30.482112",
        "meta_mean_motion": 1.00271047,
        "meta_eccentricity": 0.00029384,
        "meta_inclination": 2.8382,
        "meta_ra_of_asc_node": 81.1982,
        "meta_arg_of_pericenter": 194.0723,
        "meta_mean_anomaly": 97.2981,
        "meta_ephemeris_type": 0,
        "meta_classification_type": "U",
        "meta_norad_cat_id": 28702,
        "meta_element_set_no": 999,
        "meta_rev_at_epoch": 5017,
        "meta_bstar": 0,
        "meta_mean_motion_dot": -1.65e-06,
        "meta_mean_motion_ddot": 0,
        "tle_line1": "1 28702U 05022A   25354.03438058 -.00000165  00000+0  00000+0 0  9999",
        "tle_line2": "2 28702   2.8382  81.1982 0002938 194.0723  97.2981  1.00271047 50172"
      },
      "geometry": {
        "type": "Point",
        "coordinates": [
          -47.7485315827027,
          -2.234201494751016
        ]
      }
    },
    {
      "type": "Feature",
      "properties": {
        "norad_id": 29236,
        "name": "GALAXY 16 (G-16)",
        "group": "intelsat",
        "lat": 0.009655597025773033,
        "lon": -58.04443573201445,
        "alt_km": 35777.02439808484,
        "timestamp": "2025-12-21T20:41:07.652829+00:00",
        "meta_object_name": "GALAXY 16 (G-16)",
        "meta_object_id": "2006-023A",
        "meta_epoch": "2025-12-21T12:50:45.225024",
        "meta_mean_motion": 1.00270879,
        "meta_eccentricity": 0.0002496,
        "meta_inclination": 0.0135,
        "meta_ra_of_asc_node": 164.934,
        "meta_arg_of_pericenter": 108.8005,
        "meta_mean_anomaly": 270.3011,
        "meta_ephemeris_type": 0,
        "meta_classification_type": "U",
        "meta_norad_cat_id": 29236,
        "meta_element_set_no": 999,
        "meta_rev_at_epoch": 7119,
        "meta_bstar": 0,
        "meta_mean_motion_dot": -1.04e-06,
        "meta_mean_motion_ddot": 0,
        "tle_line1": "1 29236U 06023A   25355.53524566 -.00000104  00000+0  00000+0 0  9993",
        "tle_line2": "2 29236   0.0135 164.9340 0002496 108.8005 270.3011  1.00270879 71199"
      },
      "geometry": {
        "type": "Point",
        "coordinates": [
          -58.04443573201445,
          0.009655597025773033
        ]
      }
    },
    {
      "type": "Feature",
      "properties": {
        "norad_id": 29494,
        "name": "DIRECTV 9S",
        "group": "intelsat",
        "lat": -1.1950599517147347,
        "lon": -60.262198069267676,
        "alt_km": 35775.22519648687,
        "timestamp": "2025-12-21T20:41:07.652840+00:00",
        "meta_object_name": "DIRECTV 9S",
        "meta_object_id": "2006-043A",
        "meta_epoch": "2025-12-21T12:49:55.974432",
        "meta_mean_motion": 1.0027151,
        "meta_eccentricity": 0.00028511,
        "meta_inclination": 1.9615,
        "meta_ra_of_asc_node": 83.1209,
        "meta_arg_of_pericenter": 193.3842,
        "meta_mean_anomaly": 265.1198,
        "meta_ephemeris_type": 0,
        "meta_classification_type": "U",
        "meta_norad_cat_id": 29494,
        "meta_element_set_no": 999,
        "meta_rev_at_epoch": 4960,
        "meta_bstar": 0,
        "meta_mean_motion_dot": -9.2e-07,
        "meta_mean_motion_ddot": 0,
        "tle_line1": "1 29494U 06043A   25355.53467563 -.00000092  00000+0  00000+0 0  9990",
        "tle_line2": "2 29494   1.9615  83.1209 0002851 193.3842 265.1198  1.00271510 49609"
      },
      "geometry": {
        "type": "Point",
        "coordinates": [
          -60.262198069267676,
          -1.1950599517147347
        ]
      }
    }
  ]
}